ISS OBJECT XW           
1 66910U 98067XW  26050.45468619  .00101593  00000+0  10519-2 0  9994
2 66910  51.6266 158.1343 0003470 354.9224   5.1735 15.63889811 12327
ISS OBJECT XX           
1 66911U 98067XX  26050.51504240  .00153219  00000+0  13523-2 0  9993
2 66911  51.6244 157.0316 0005194 349.8357  10.2534 15.67669065 12333
ISS OBJECT XY           
1 66912U 98067XY  26050.34696944  .00068701  00000+0  81983-3 0  9995
2 66912  51.6294 159.6758 0001445   3.3383 356.7620 15.60404810 12289
ISS OBJECT XZ           
1 67683U 98067XZ  26050.49385523  .00033120  00000+0  57836-3 0  9992
2 67683  51.6324 162.1537 0010275 126.2091 233.9850 15.50315047  1961
GXIBA-1                 
1 67684U 98067YA  26050.48728318  .00059891  00000+0  99383-3 0  9991
2 67684  51.6314 162.1104 0011778 118.4667 241.7510 15.51462651  1967
CORAL                   
1 67685U 98067YB  26050.29926207  .00038008  00000+0  65731-3 0  9995
2 67685  51.6319 163.1038 0012198 121.7230 238.4949 15.50497404  1939
ISS OBJECT YC           
1 67686U 98067YC  26050.49140385  .00041589  00000+0  71316-3 0  9997
2 67686  51.6328 162.1384 0007795  94.3577 265.8303 15.50743125  1964
LEOPARD                 
1 67687U 98067YD  26050.49313260  .00037005  00000+0  64280-3 0  9992
2 67687  51.6323 162.1494 0007831  96.8673 263.3207 15.50433274  1885
ISS OBJECT YE           
1 67688U 98067YE  26050.49188867  .00040652  00000+0  69998-3 0  9999
2 67688  51.6330 162.1416 0007716  94.6161 265.5709 15.50637340  1889
CREW DRAGON 12          
1 67796U 26031A   26049.79608032  .00009878  00000+0  18896-3 0  9999
2 67796  51.6323 165.7431 0010935 112.1599 248.0551 15.48691264   821
