CCSDS_OMM_VERS = 2.0
CREATION_DATE  = 
ORIGINATOR     = 

OBJECT_NAME    = ISS OBJECT XW
OBJECT_ID      = 1998-067XW
CENTER_NAME    = EARTH
REF_FRAME      = TEME
TIME_SYSTEM    = UTC
MEAN_ELEMENT_THEORY = SGP/SGP4

EPOCH          = 2026-02-19T10:54:44.886816
MEAN_MOTION    = 15.63889811
ECCENTRICITY   = .000347
INCLINATION    = 51.6266
RA_OF_ASC_NODE = 158.1343
ARG_OF_PERICENTER = 354.9224
MEAN_ANOMALY   = 5.1735

EPHEMERIS_TYPE = 0
CLASSIFICATION_TYPE = U
NORAD_CAT_ID   = 66910
ELEMENT_SET_NO = 999
REV_AT_EPOCH   = 1232
BSTAR          = .10519E-2
MEAN_MOTION_DOT = .101593E-2
MEAN_MOTION_DDOT = 0

CCSDS_OMM_VERS = 2.0
CREATION_DATE  = 
ORIGINATOR     = 

OBJECT_NAME    = ISS OBJECT XX
OBJECT_ID      = 1998-067XX
CENTER_NAME    = EARTH
REF_FRAME      = TEME
TIME_SYSTEM    = UTC
MEAN_ELEMENT_THEORY = SGP/SGP4

EPOCH          = 2026-02-19T12:21:39.663360
MEAN_MOTION    = 15.67669065
ECCENTRICITY   = .0005194
INCLINATION    = 51.6244
RA_OF_ASC_NODE = 157.0316
ARG_OF_PERICENTER = 349.8357
MEAN_ANOMALY   = 10.2534

EPHEMERIS_TYPE = 0
CLASSIFICATION_TYPE = U
NORAD_CAT_ID   = 66911
ELEMENT_SET_NO = 999
REV_AT_EPOCH   = 1233
BSTAR          = .13523E-2
MEAN_MOTION_DOT = .153219E-2
MEAN_MOTION_DDOT = 0

CCSDS_OMM_VERS = 2.0
CREATION_DATE  = 
ORIGINATOR     = 

OBJECT_NAME    = ISS OBJECT XY
OBJECT_ID      = 1998-067XY
CENTER_NAME    = EARTH
REF_FRAME      = TEME
TIME_SYSTEM    = UTC
MEAN_ELEMENT_THEORY = SGP/SGP4

EPOCH          = 2026-02-19T08:19:38.159616
MEAN_MOTION    = 15.60404810
ECCENTRICITY   = .0001445
INCLINATION    = 51.6294
RA_OF_ASC_NODE = 159.6758
ARG_OF_PERICENTER = 3.3383
MEAN_ANOMALY   = 356.7620

EPHEMERIS_TYPE = 0
CLASSIFICATION_TYPE = U
NORAD_CAT_ID   = 66912
ELEMENT_SET_NO = 999
REV_AT_EPOCH   = 1228
BSTAR          = .81983E-3
MEAN_MOTION_DOT = .68701E-3
MEAN_MOTION_DDOT = 0

CCSDS_OMM_VERS = 2.0
CREATION_DATE  = 
ORIGINATOR     = 

OBJECT_NAME    = ISS OBJECT XZ
OBJECT_ID      = 1998-067XZ
CENTER_NAME    = EARTH
REF_FRAME      = TEME
TIME_SYSTEM    = UTC
MEAN_ELEMENT_THEORY = SGP/SGP4

EPOCH          = 2026-02-19T11:51:09.091872
MEAN_MOTION    = 15.50315047
ECCENTRICITY   = .0010275
INCLINATION    = 51.6324
RA_OF_ASC_NODE = 162.1537
ARG_OF_PERICENTER = 126.2091
MEAN_ANOMALY   = 233.9850

EPHEMERIS_TYPE = 0
CLASSIFICATION_TYPE = U
NORAD_CAT_ID   = 67683
ELEMENT_SET_NO = 999
REV_AT_EPOCH   = 196
BSTAR          = .57836E-3
MEAN_MOTION_DOT = .3312E-3
MEAN_MOTION_DDOT = 0

CCSDS_OMM_VERS = 2.0
CREATION_DATE  = 
ORIGINATOR     = 

OBJECT_NAME    = GXIBA-1
OBJECT_ID      = 1998-067YA
CENTER_NAME    = EARTH
REF_FRAME      = TEME
TIME_SYSTEM    = UTC
MEAN_ELEMENT_THEORY = SGP/SGP4

EPOCH          = 2026-02-19T11:41:41.266752
MEAN_MOTION    = 15.51462651
ECCENTRICITY   = .0011778
INCLINATION    = 51.6314
RA_OF_ASC_NODE = 162.1104
ARG_OF_PERICENTER = 118.4667
MEAN_ANOMALY   = 241.7510

EPHEMERIS_TYPE = 0
CLASSIFICATION_TYPE = U
NORAD_CAT_ID   = 67684
ELEMENT_SET_NO = 999
REV_AT_EPOCH   = 196
BSTAR          = .99383E-3
MEAN_MOTION_DOT = .59891E-3
MEAN_MOTION_DDOT = 0

CCSDS_OMM_VERS = 2.0
CREATION_DATE  = 
ORIGINATOR     = 

OBJECT_NAME    = CORAL
OBJECT_ID      = 1998-067YB
CENTER_NAME    = EARTH
REF_FRAME      = TEME
TIME_SYSTEM    = UTC
MEAN_ELEMENT_THEORY = SGP/SGP4

EPOCH          = 2026-02-19T07:10:56.242848
MEAN_MOTION    = 15.50497404
ECCENTRICITY   = .0012198
INCLINATION    = 51.6319
RA_OF_ASC_NODE = 163.1038
ARG_OF_PERICENTER = 121.7230
MEAN_ANOMALY   = 238.4949

EPHEMERIS_TYPE = 0
CLASSIFICATION_TYPE = U
NORAD_CAT_ID   = 67685
ELEMENT_SET_NO = 999
REV_AT_EPOCH   = 193
BSTAR          = .65731E-3
MEAN_MOTION_DOT = .38008E-3
MEAN_MOTION_DDOT = 0

CCSDS_OMM_VERS = 2.0
CREATION_DATE  = 
ORIGINATOR     = 

OBJECT_NAME    = ISS OBJECT YC
OBJECT_ID      = 1998-067YC
CENTER_NAME    = EARTH
REF_FRAME      = TEME
TIME_SYSTEM    = UTC
MEAN_ELEMENT_THEORY = SGP/SGP4

EPOCH          = 2026-02-19T11:47:37.292640
MEAN_MOTION    = 15.50743125
ECCENTRICITY   = .0007795
INCLINATION    = 51.6328
RA_OF_ASC_NODE = 162.1384
ARG_OF_PERICENTER = 94.3577
MEAN_ANOMALY   = 265.8303

EPHEMERIS_TYPE = 0
CLASSIFICATION_TYPE = U
NORAD_CAT_ID   = 67686
ELEMENT_SET_NO = 999
REV_AT_EPOCH   = 196
BSTAR          = .71316E-3
MEAN_MOTION_DOT = .41589E-3
MEAN_MOTION_DDOT = 0

CCSDS_OMM_VERS = 2.0
CREATION_DATE  = 
ORIGINATOR     = 

OBJECT_NAME    = LEOPARD
OBJECT_ID      = 1998-067YD
CENTER_NAME    = EARTH
REF_FRAME      = TEME
TIME_SYSTEM    = UTC
MEAN_ELEMENT_THEORY = SGP/SGP4

EPOCH          = 2026-02-19T11:50:06.656640
MEAN_MOTION    = 15.50433274
ECCENTRICITY   = .0007831
INCLINATION    = 51.6323
RA_OF_ASC_NODE = 162.1494
ARG_OF_PERICENTER = 96.8673
MEAN_ANOMALY   = 263.3207

EPHEMERIS_TYPE = 0
CLASSIFICATION_TYPE = U
NORAD_CAT_ID   = 67687
ELEMENT_SET_NO = 999
REV_AT_EPOCH   = 188
BSTAR          = .6428E-3
MEAN_MOTION_DOT = .37005E-3
MEAN_MOTION_DDOT = 0

CCSDS_OMM_VERS = 2.0
CREATION_DATE  = 
ORIGINATOR     = 

OBJECT_NAME    = ISS OBJECT YE
OBJECT_ID      = 1998-067YE
CENTER_NAME    = EARTH
REF_FRAME      = TEME
TIME_SYSTEM    = UTC
MEAN_ELEMENT_THEORY = SGP/SGP4

EPOCH          = 2026-02-19T11:48:19.181088
MEAN_MOTION    = 15.50637340
ECCENTRICITY   = .0007716
INCLINATION    = 51.6330
RA_OF_ASC_NODE = 162.1416
ARG_OF_PERICENTER = 94.6161
MEAN_ANOMALY   = 265.5709

EPHEMERIS_TYPE = 0
CLASSIFICATION_TYPE = U
NORAD_CAT_ID   = 67688
ELEMENT_SET_NO = 999
REV_AT_EPOCH   = 188
BSTAR          = .69998E-3
MEAN_MOTION_DOT = .40652E-3
MEAN_MOTION_DDOT = 0

CCSDS_OMM_VERS = 2.0
CREATION_DATE  = 
ORIGINATOR     = 

OBJECT_NAME    = CREW DRAGON 12
OBJECT_ID      = 2026-031A
CENTER_NAME    = EARTH
REF_FRAME      = TEME
TIME_SYSTEM    = UTC
MEAN_ELEMENT_THEORY = SGP/SGP4

EPOCH          = 2026-02-18T19:06:21.339648
MEAN_MOTION    = 15.48691264
ECCENTRICITY   = .00109355
INCLINATION    = 51.6323
RA_OF_ASC_NODE = 165.7431
ARG_OF_PERICENTER = 112.1599
MEAN_ANOMALY   = 248.0551

EPHEMERIS_TYPE = 0
CLASSIFICATION_TYPE = U
NORAD_CAT_ID   = 67796
ELEMENT_SET_NO = 999
REV_AT_EPOCH   = 82
BSTAR          = .18896108E-3
MEAN_MOTION_DOT = .9878E-4
MEAN_MOTION_DDOT = 0

